{
    "links": {
        "self": "http://www.neowsapp.com/rest/v1/neo/3266177?api_key=iIulBulltgU6a56xZRHN4H3l9WmuAYTsLGpBGhQ2"
    },
    "id": "3266177",
    "neo_reference_id": "3266177",
    "name": "(2005 BS1)",
    "designation": "2005 BS1",
    "nasa_jpl_url": "http://ssd.jpl.nasa.gov/sbdb.cgi?sstr=3266177",
    "absolute_magnitude_h": 27.5,
    "estimated_diameter": {
        "kilometers": {
            "estimated_diameter_min": 0.008405334,
            "estimated_diameter_max": 0.0187948982
        },
        "meters": {
            "estimated_diameter_min": 8.4053340207,
            "estimated_diameter_max": 18.7948982439
        },
        "miles": {
            "estimated_diameter_min": 0.0052228308,
            "estimated_diameter_max": 0.0116786047
        },
        "feet": {
            "estimated_diameter_min": 27.5765560686,
            "estimated_diameter_max": 61.6630539546
        }
    },
    "is_potentially_hazardous_asteroid": false,
    "close_approach_data": [
        {
            "close_approach_date": "2005-01-13",
            "close_approach_date_full": "2005-Jan-13 02:36",
            "epoch_date_close_approach": 1105583760000,
            "relative_velocity": {
                "kilometers_per_second": "12.2212210483",
                "kilometers_per_hour": "43996.3957737065",
                "miles_per_hour": "27337.6493628345"
            },
            "miss_distance": {
                "astronomical": "0.0011904668",
                "lunar": "0.4630915852",
                "kilometers": "178091.297585716",
                "miles": "110660.8009102408"
            },
            "orbiting_body": "Moon"
        },
        {
            "close_approach_date": "2005-01-13",
            "close_approach_date_full": "2005-Jan-13 10:10",
            "epoch_date_close_approach": 1105611000000,
            "relative_velocity": {
                "kilometers_per_second": "12.4568341613",
                "kilometers_per_hour": "44844.6029805122",
                "miles_per_hour": "27864.6923353077"
            },
            "miss_distance": {
                "astronomical": "0.0017500534",
                "lunar": "0.6807707726",
                "kilometers": "261804.261026258",
                "miles": "162677.6243400404"
            },
            "orbiting_body": "Earth"
        }
    ],
    "orbital_data": {
        "orbit_id": "8",
        "orbit_determination_date": "2017-04-06 09:11:33",
        "first_observation_date": "2005-01-16",
        "last_observation_date": "2005-01-19",
        "data_arc_in_days": 3,
        "observations_used": 22,
        "orbit_uncertainty": "8",
        "minimum_orbit_intersection": ".000499886",
        "jupiter_tisserand_invariant": "3.664",
        "epoch_osculation": "2453388.5",
        "eccentricity": ".5657762836506129",
        "semi_major_axis": "1.961656476266141",
        "inclination": "2.641488327805885",
        "ascending_node_longitude": "113.6920687962115",
        "orbital_period": "1003.535780129567",
        "perihelion_distance": ".8517977653251269",
        "perihelion_argument": "308.3428822925942",
        "aphelion_distance": "3.071515187207154",
        "perihelion_time": "2453347.895978499740",
        "mean_anomaly": "14.5659457585123",
        "mean_motion": ".3587316039230012",
        "equinox": "J2000",
        "orbit_class": {
            "orbit_class_type": "APO",
            "orbit_class_description": "Near-Earth asteroid orbits which cross the Earth’s orbit similar to that of 1862 Apollo",
            "orbit_class_range": "a (semi-major axis) > 1.0 AU; q (perihelion) < 1.017 AU"
        }
    },
    "is_sentry_object": false
}